NORAD_CAT_ID,OBJECT_NAME,OBJECT_TYPE,EPOCH,MEAN_MOTION,ECCENTRICITY,INCLINATION,RA_OF_ASC_NODE,ARG_OF_PERICENTER,MEAN_ANOMALY,BSTAR,MEAN_MOTION_DOT,MEAN_MOTION_DDOT,TLE_LINE0,TLE_LINE1,TLE_LINE2,SEMIMAJOR_AXIS,PERIOD,APOGEE,PERIGEE,DECAYED
53844.0,STARLINK-4745,PAYLOAD,2022-09-23 16:00:00,15.882237699999996,0.0032614,53.2174,236.2151,55.7497,36.8742,-0.0042033999999999,-0.01233355,0.00043208,0 STARLINK-4745,1 53844U 22114AC  22266.66667824 -.01233355  43208-3 -42034-2 0  9996,2 53844  53.2174 236.2151 0032614  55.7497  36.8742 15.88223770  1308,6685.4,90.667,329.069,285.461,0.0
53844.0,STARLINK-4745,PAYLOAD,2022-09-24 06:00:00,15.86745669,0.0026329,53.2172,233.2682,57.1563,131.1778,-0.0049043,-0.01314022,0.00047839,0 STARLINK-4745,1 53844U 22114AC  22267.25001157 -.01314022  47839-3 -49043-2 0  9995,2 53844  53.2172 233.2682 0026329  57.1563 131.1778 15.86745669  1399,6689.551,90.752,329.029,293.803,0.0
53844.0,STARLINK-4745,PAYLOAD,2022-09-24 14:00:01,15.85888478,0.0022820999999999,53.2168,231.5852,56.875,236.2164,-0.0052426,-0.01336601,0.00048968,0 STARLINK-4745,1 53844U 22114AC  22267.58335648 -.01336601  48968-3 -52426-2 0  9996,2 53844  53.2168 231.5852 0022821  56.8750 236.2164 15.85888478  1303,6691.9609999999975,90.801,329.098,298.5540000000001,0.0
53844.0,STARLINK-4745,PAYLOAD,2022-09-24 22:00:00,15.85013454,0.0019322,53.2176,229.9052,55.0747,341.6015,-0.0053957,-0.01161222,0.0,0 STARLINK-4745,1 53844U 22114AC  22267.91667824 -.01161222  00000-0 -53957-2 0  9994,2 53844  53.2176 229.9052 0019322  55.0747 341.6015 15.85013454  1304,6694.424,90.851,329.224,303.3540000000001,0.0
53844.0,STARLINK-4745,PAYLOAD,2022-09-25 14:00:01,15.83311088,0.0012354,53.2174,226.553,49.3982,191.4409,-0.0062253,-0.01234613,0.0,0 STARLINK-4745,1 53844U 22114AC  22268.58334491 -.01234613  00000-0 -62253-2 0  9993,2 53844  53.2174 226.5530 0012354  49.3982 191.4409 15.83311088  1301,6699.222,90.949,329.36300000000006,312.81,0.0
53844.0,STARLINK-4745,PAYLOAD,2022-09-25 22:00:01,15.82428685,0.0008506,53.2175,224.879,45.9487,295.4843,-0.0063641,-0.01207651,0.0,0 STARLINK-4745,1 53844U 22114AC  22268.91668981 -.01207651  00000-0 -63641-2 0  9998,2 53844  53.2175 224.8790 0008506  45.9487 295.4843 15.82428685  1305,6701.712,90.999,329.277,317.876,0.0
53844.0,STARLINK-4745,PAYLOAD,2022-09-26 10:00:00,15.81133931,0.0004596,53.2171,222.3749,32.5527,277.6397,-0.006852,-0.0121772,0.0,0 STARLINK-4745,1 53844U 22114AC  22269.41667824 -.01217720  00000-0 -68520-2 0  9998,2 53844  53.2171 222.3749 0004596  32.5527 277.6397 15.81133931  1739,6705.37,91.074,330.31699999999995,324.153,0.0
53844.0,STARLINK-4745,PAYLOAD,2022-09-26 14:00:01,15.80691289,0.0004478,53.2174,221.5395,33.0924,146.191,-0.0068911999999999,-0.01201541,0.0,0 STARLINK-4745,1 53844U 22114AC  22269.58334491 -.01201541  00000-0 -68912-2 0  9996,2 53844  53.2174 221.5395 0004478  33.0924 146.1910 15.80691289  1304,6706.621999999999,91.099,331.49,325.483,0.0
53844.0,STARLINK-4745,PAYLOAD,2022-09-26 22:00:00,15.79837892,0.0003043999999999,53.2177,219.8723,313.6168,323.0554,-0.0073348,-0.01225079,0.0,0 STARLINK-4745,1 53844U 22114AC  22269.91667824 -.01225079  00000-0 -73348-2 0  9993,2 53844  53.2177 219.8723 0003044 313.6168 323.0554 15.79837892  1307,6709.0369999999975,91.149,332.944,328.8590000000001,0.0
53844.0,STARLINK-4745,PAYLOAD,2022-09-27 06:00:00,15.79008232,0.0004513999999999,53.2175,218.2088,286.0108,86.9881,-0.0079003,-0.01265963,0.0,0 STARLINK-4745,1 53844U 22114AC  22270.25001157 -.01265963  00000-0 -79003-2 0  9993,2 53844  53.2175 218.2088 0004514 286.0108  86.9881 15.79008232  1869,6711.386,91.196,336.281,330.222,0.0
53844.0,STARLINK-4745,PAYLOAD,2022-09-27 14:00:01,15.78178992,0.0006341,53.2172,216.5448,275.0609,193.2262,-0.0085446,-0.01337996,0.0,0 STARLINK-4745,1 53844U 22114AC  22270.58334491 -.01337996  00000-0 -85446-2 0  9993,2 53844  53.2172 216.5448 0006341 275.0609 193.2262 15.78178992  1305,6713.736999999999,91.244,339.8590000000001,331.345,0.0
53844.0,STARLINK-4745,PAYLOAD,2022-09-27 22:00:01,15.77168929,0.0006098,53.217,214.8833,269.8211,292.8736,-0.0076227,-0.01139868,0.0,0 STARLINK-4745,1 53844U 22114AC  22270.91668981 -.01139868  00000-0 -76227-2 0  9999,2 53844  53.2170 214.8833 0006098 269.8211 292.8736 15.77168929  1974,6716.603,91.303,342.564,334.3730000000001,0.0
53844.0,STARLINK-4745,PAYLOAD,2022-09-28 06:00:00,15.76332282,0.0003521,53.2174,213.2284,269.4376,26.3891,-0.0081434,-0.01167509,0.0,0 STARLINK-4745,1 53844U 22114AC  22271.25001157 -.01167509  00000-0 -81434-2 0  9992,2 53844  53.2174 213.2284 0003521 269.4376  26.3891 15.76332282  2020,6718.98,91.351,343.21,338.4790000000001,0.0
53844.0,STARLINK-4745,PAYLOAD,2022-09-28 14:00:01,15.7553511,0.0001298,53.2174,211.5699,21.5237,6.4511,-0.0092453999999999,-0.0128773,0.0,0 STARLINK-4745,1 53844U 22114AC  22271.58334491 -.01287730  00000-0 -92454-2 0  9991,2 53844  53.2174 211.5699 0001298  21.5237   6.4511 15.75535110  1305,6721.246,91.398,343.983,342.23800000000006,0.0
53844.0,STARLINK-4745,PAYLOAD,2022-09-28 22:00:00,15.74634343,0.0001302,53.2172,209.9153,42.6228,76.5017,-0.0092213,-0.01218325,0.0,0 STARLINK-4745,1 53844U 22114AC  22271.91667824 -.01218325  00000-0 -92213-2 0  9994,2 53844  53.2172 209.9153 0001302  42.6228  76.5017 15.74634343  2137,6723.809,91.45,346.5490000000001,344.798,0.0
53844.0,STARLINK-4745,PAYLOAD,2022-09-29 06:00:00,15.73621797,0.0001189999999999,53.2175,208.2655,50.0111,159.2249,-0.0039889,-0.00535821,0.0,0 STARLINK-4745,1 53844U 22114AC  22272.25001157 -.00535821  00000-0 -39889-2 0  9995,2 53844  53.2175 208.2655 0001190  50.0111 159.2249 15.73621797  2187,6726.693,91.509,349.358,347.75699999999995,0.0
53844.0,STARLINK-4745,PAYLOAD,2022-09-29 14:00:01,15.73204947,0.0001127,53.2175,206.6143,68.2053,230.2301,-1.0657e-05,-2.115e-05,0.0,0 STARLINK-4745,1 53844U 22114AC  22272.58334491 -.00002115  00000-0 -10657-4 0  9990,2 53844  53.2175 206.6143 0001127  68.2053 230.2301 15.73204947  1303,6727.880999999999,91.533,350.504,348.98800000000006,0.0
53844.0,STARLINK-4745,PAYLOAD,2022-09-29 22:00:00,15.73246902,0.0001428,53.2152,204.9606,70.506,316.8851,-0.00026606,-0.00037868,0.0,0 STARLINK-4745,1 53844U 22114AC  22272.91667824 -.00037868  00000-0 -26606-3 0  9999,2 53844  53.2152 204.9606 0001428  70.5060 316.8851 15.73246902  1309,6727.761,91.53,350.587,348.666,0.0
53844.0,STARLINK-4745,PAYLOAD,2022-09-30 06:00:02,15.73232545,0.0001452,53.2151,203.3128,62.7729,53.6522,3.4966e-05,4.296e-05,0.0,0 STARLINK-4745,1 53844U 22114AC  22273.25002315  .00004296  00000-0  34966-4 0  9991,2 53844  53.2151 203.3128 0001452  62.7729  53.6522 15.73232545  2346,6727.802,91.531,350.644,348.691,0.0
53844.0,STARLINK-4745,PAYLOAD,2022-09-30 14:00:01,15.73189065,0.0001085999999999,53.2153,201.6612,63.8117,141.5312,-2.3569e-05,-3.924e-05,0.0,0 STARLINK-4745,1 53844U 22114AC  22273.58334491 -.00003924  00000-0 -23569-4 0  9996,2 53844  53.2153 201.6612 0001086  63.8117 141.5312 15.73189065  1300,6727.926,91.534,350.522,349.061,0.0
53844.0,STARLINK-4745,PAYLOAD,2022-09-30 16:00:00,15.73144484,0.0001032999999999,53.2151,201.2484,67.065,250.5214,0.00065554,0.00092175,0.0,0 STARLINK-4745,1 53844U 22114AC  22273.66667824  .00092175  00000-0  65554-3 0  9997,2 53844  53.2151 201.2484 0001033  67.0650 250.5214 15.73144484  2401,6728.053000000001,91.536,350.61300000000006,349.223,0.0
53844.0,STARLINK-4745,PAYLOAD,2022-09-30 22:00:00,15.73229981,9.7e-05,53.2152,200.012,63.5569,230.6993,0.00013368,0.00018206,0.0,0 STARLINK-4745,1 53844U 22114AC  22273.91667824  .00018206  00000-0  13368-3 0  9994,2 53844  53.2152 200.0120 0000970  63.5569 230.6993 15.73229981  1302,6727.81,91.531,350.327,349.022,0.0
53844.0,STARLINK-4745,PAYLOAD,2022-10-01 06:00:00,15.73204466,0.0001028,53.2147,198.364,50.4874,332.7528,0.00031386,0.00043665,0.0,0 STARLINK-4745,1 53844U 22114AC  22274.25001157  .00043665  00000-0  31386-3 0  9990,2 53844  53.2147 198.3640 0001028  50.4874 332.7528 15.73204466  2491,6727.882,91.533,350.439,349.056,0.0
53844.0,STARLINK-4745,PAYLOAD,2022-10-01 14:00:01,15.7322333,8.85e-05,53.2145,196.7125,65.7173,46.4811,-0.00023454,-0.00033436,0.0,0 STARLINK-4745,1 53844U 22114AC  22274.58334491 -.00033436  00000-0 -23454-3 0  9990,2 53844  53.2145 196.7125 0000885  65.7173  46.4811 15.73223330  1304,6727.829000000002,91.532,350.289,349.098,0.0
53844.0,STARLINK-4745,PAYLOAD,2022-10-01 22:00:00,15.73201178,0.0001048,53.2146,195.0635,71.4779,129.6455,-0.00061467,-0.0008601,0.0,0 STARLINK-4745,1 53844U 22114AC  22274.91667824 -.00086010  00000-0 -61467-3 0  9998,2 53844  53.2146 195.0635 0001048  71.4779 129.6455 15.73201178  2609,6727.892,91.533,350.462,349.052,0.0
53844.0,STARLINK-4745,PAYLOAD,2022-10-02 06:00:00,15.731184900000002,0.0001030999999999,53.2145,193.4155,57.0095,233.009,0.00073326,0.00103198,0.0,0 STARLINK-4745,1 53844U 22114AC  22275.25001157  .00103198  00000-0  73326-3 0  9999,2 53844  53.2145 193.4155 0001031  57.0095 233.0090 15.73118490  2654,6728.128000000002,91.538,350.686,349.2990000000001,0.0
53844.0,STARLINK-4745,PAYLOAD,2022-10-02 14:00:01,15.73153581,0.0001030999999999,53.2149,191.7638,75.3857,303.5204,0.00026319,0.00036404,0.0,0 STARLINK-4745,1 53844U 22114AC  22275.58334491  .00036404  00000-0  26319-3 0  9990,2 53844  53.2149 191.7638 0001031  75.3857 303.5204 15.73153581  2700,6728.028,91.536,350.586,349.199,0.0
53844.0,STARLINK-4745,PAYLOAD,2022-10-02 22:00:00,15.73198612,0.0001216,53.215,190.1151,74.9488,32.8379,0.00035539,0.00049548,0.0,0 STARLINK-4745,1 53844U 22114AC  22275.91667824  .00049548  00000-0  35539-3 0  9993,2 53844  53.2150 190.1151 0001216  74.9488  32.8379 15.73198612  1309,6727.899,91.533,350.582,348.946,0.0
53844.0,STARLINK-4745,PAYLOAD,2022-10-03 06:00:00,15.73249958,0.000127,53.2145,188.4668,68.6659,128.0634,0.00022967,0.00031803,0.0,0 STARLINK-4745,1 53844U 22114AC  22276.25001157  .00031803  00000-0  22967-3 0  9998,2 53844  53.2145 188.4668 0001270  68.6659 128.0634 15.73249958  2815,6727.753000000002,91.53,350.472,348.76300000000015,0.0
